ADRAS-J                 
1 58992U 24034A   24086.84068749  .00006914  00000+0  66898-3 0  9991
2 58992  98.2050  56.2196 0043433 321.2818  38.5289 14.92401328  5576
